0 FENGYUN 1C DEB
1 29914U 99025HL  13281.53563049 -.00000093  00000-0 -31592-4 0   450
2 29914 099.1398 267.2636 0037611 178.3137 300.3322 14.01527720344537
0 FENGYUN 1C DEB
1 29914U 99025HL  13283.82011727 -.00000108  00000-0 -41572-4 0   462
2 29914 099.1396 269.5517 0037737 171.9431 306.7794 14.01528105344859
0 FENGYUN 1C DEB
1 29914U 99025HL  13285.87902875 -.00000130  00000-0 -55937-4 0   478
2 29914 099.1394 271.6138 0037855 166.2580 255.0235 14.01527985345147
0 FENGYUN 1C DEB
1 29914U 99025HL  13287.87980088 -.00000085  00000-0 -26024-4 0   487
2 29914 099.1394 273.6173 0037986 160.7785 269.8801 14.01528080345429
0 FENGYUN 1C DEB
1 29914U 99025HL  13289.94690505 -.00000121  00000-0 -50031-4 0   496
2 29914 099.1398 275.6872 0038095 155.1637 259.3693 14.01528065345715
0 FENGYUN 1C DEB
1 29914U 99025HL  13292.52965400 -.00000106  00000-0 -40015-4 0   509
2 29914 099.1400 278.2736 0038253 148.1148 330.5554 14.01527705346070
0 FENGYUN 1C DEB
1 29914U 99025HL  13294.94414242 -.00000081  00000-0 -23538-4 0   514
2 29914 099.1399 280.6916 0038376 141.6293 272.6810 14.01527292346419
